GLOBALSTAR M024         
1 25883U 99043A   24125.22195653 -.00000128  00000+0 -22292-2 0  9999
2 25883  52.0010 223.3826 0002018 154.7704 216.1496 11.10160320 69471
GLOBALSTAR M027         
1 25884U 99043B   24124.74571342 -.00000110  00000+0 -17558-2 0  9999
2 25884  52.0213 290.8413 0021661  52.0931 308.1817 11.04368030 96004
GLOBALSTAR M053         
1 25886U 99043D   24126.16327902 -.00000072  00000+0 -10351-3 0  9992
2 25886  52.0007  47.9086 0003660 101.9926  46.1993 11.27654785 73550
GLOBALSTAR M058         
1 25907U 99049A   24126.17576898 -.00000056  00000+0  38208-3 0  9995
2 25907  51.9909 118.6502 0002308 216.4579 143.6098 11.93176730104046
GLOBALSTAR M033         
1 25909U 99049C   24126.19270746  .00000045  00000+0  13119-2 0  9992
2 25909  51.9925  56.7761 0011740 148.0670 212.0890 12.20272697118650
GLOBALSTAR M055         
1 25910U 99049D   24126.20539454 -.00000072  00000+0  19226-3 0  9997
2 25910  52.0012  87.3413 0007337   6.2089 353.8852 12.29400526118320
